[{"OBJECT_NAME":"STARLINK-34321","OBJECT_ID":"2025-120M","EPOCH":"2026-03-09T10:56:32.298432","MEAN_MOTION":15.30199823,"ECCENTRICITY":0.00011721,"INCLINATION":53.1592,"RA_OF_ASC_NODE":117.5427,"ARG_OF_PERICENTER":90.9956,"MEAN_ANOMALY":269.1179,"EPHEMERIS_TYPE":0,"CLASSIFICATION_TYPE":"U","NORAD_CAT_ID":64267,"ELEMENT_SET_NO":999,"REV_AT_EPOCH":4388,"BSTAR":0.00049717488,"MEAN_MOTION_DOT":0.00014394,"MEAN_MOTION_DDOT":0},{"OBJECT_NAME":"KUIPER-00222","OBJECT_ID":"2026-030U","EPOCH":"2026-03-09T16:13:57.726048","MEAN_MOTION":15.32445377,"ECCENTRICITY":0.00128002,"INCLINATION":51.8817,"RA_OF_ASC_NODE":219.7147,"ARG_OF_PERICENTER":40.1845,"MEAN_ANOMALY":320.0084,"EPHEMERIS_TYPE":0,"CLASSIFICATION_TYPE":"U","NORAD_CAT_ID":67782,"ELEMENT_SET_NO":999,"REV_AT_EPOCH":508,"BSTAR":0.0017317201,"MEAN_MOTION_DOT":0.00055223,"MEAN_MOTION_DDOT":0}]
